{
    "links": {
        "self": "http://www.neowsapp.com/rest/v1/neo/3795127?api_key=iIulBulltgU6a56xZRHN4H3l9WmuAYTsLGpBGhQ2"
    },
    "id": "3795127",
    "neo_reference_id": "3795127",
    "name": "(2017 YB7)",
    "designation": "2017 YB7",
    "nasa_jpl_url": "http://ssd.jpl.nasa.gov/sbdb.cgi?sstr=3795127",
    "absolute_magnitude_h": 22.8,
    "estimated_diameter": {
        "kilometers": {
            "estimated_diameter_min": 0.0732073989,
            "estimated_diameter_max": 0.1636967205
        },
        "meters": {
            "estimated_diameter_min": 73.2073989347,
            "estimated_diameter_max": 163.696720474
        },
        "miles": {
            "estimated_diameter_min": 0.0454889547,
            "estimated_diameter_max": 0.1017163949
        },
        "feet": {
            "estimated_diameter_min": 240.181762721,
            "estimated_diameter_max": 537.0627483999
        }
    },
    "is_potentially_hazardous_asteroid": false,
    "close_approach_data": [
        {
            "close_approach_date": "2017-11-28",
            "close_approach_date_full": "2017-Nov-28 05:51",
            "epoch_date_close_approach": 1511848260000,
            "relative_velocity": {
                "kilometers_per_second": "12.0084666743",
                "kilometers_per_hour": "43230.4800275203",
                "miles_per_hour": "26861.7391037667"
            },
            "miss_distance": {
                "astronomical": "0.2428549409",
                "lunar": "94.4705720101",
                "kilometers": "36330581.877615883",
                "miles": "22574776.7724418654"
            },
            "orbiting_body": "Earth"
        },
        {
            "close_approach_date": "2136-01-01",
            "close_approach_date_full": "2136-Jan-01 18:36",
            "epoch_date_close_approach": 5238498960000,
            "relative_velocity": {
                "kilometers_per_second": "22.0424580941",
                "kilometers_per_hour": "79352.8491389285",
                "miles_per_hour": "49306.774510797"
            },
            "miss_distance": {
                "astronomical": "0.2409821889",
                "lunar": "93.7420714821",
                "kilometers": "36050422.167377643",
                "miles": "22400693.6008437534"
            },
            "orbiting_body": "Earth"
        }
    ],
    "orbital_data": {
        "orbit_id": "3",
        "orbit_determination_date": "2018-01-14 06:59:46",
        "first_observation_date": "2017-12-24",
        "last_observation_date": "2018-01-08",
        "data_arc_in_days": 15,
        "observations_used": 21,
        "orbit_uncertainty": "8",
        "minimum_orbit_intersection": ".0563741",
        "jupiter_tisserand_invariant": "3.559",
        "epoch_osculation": "2458113.5",
        "eccentricity": ".6229774092817445",
        "semi_major_axis": "1.99092611175352",
        "inclination": "12.21772397618101",
        "ascending_node_longitude": "141.6650371098519",
        "orbital_period": "1026.079806630387",
        "perihelion_distance": ".7506241205819352",
        "perihelion_argument": "234.5343629566439",
        "aphelion_distance": "3.231228102925105",
        "perihelion_time": "2458051.503977862710",
        "mean_anomaly": "21.75129831539892",
        "mean_motion": ".3508499023893943",
        "equinox": "J2000",
        "orbit_class": {
            "orbit_class_type": "APO",
            "orbit_class_description": "Near-Earth asteroid orbits which cross the Earth’s orbit similar to that of 1862 Apollo",
            "orbit_class_range": "a (semi-major axis) > 1.0 AU; q (perihelion) < 1.017 AU"
        }
    },
    "is_sentry_object": false
}